NORAD_CAT_ID,OBJECT_NAME,OBJECT_TYPE,EPOCH,MEAN_MOTION,ECCENTRICITY,INCLINATION,RA_OF_ASC_NODE,ARG_OF_PERICENTER,MEAN_ANOMALY,BSTAR,MEAN_MOTION_DOT,MEAN_MOTION_DDOT,TLE_LINE0,TLE_LINE1,TLE_LINE2,SEMIMAJOR_AXIS,PERIOD,APOGEE,PERIGEE,DECAYED
50818.0,STARLINK-3336,PAYLOAD,2024-07-13 18:49:53,15.08827042,0.0001099,53.2186,0.1572,64.5292,295.5814,6.4453e-05,7.38e-06,0.0,0 STARLINK-3336,1 50818U 22001R   24195.78464431  .00000738  00000-0  64453-4 0  9999,2 50818  53.2186   0.1572 0001099  64.5292 295.5814 15.08827042140513,6917.92,95.438,540.545,539.025,0.0
50818.0,STARLINK-3336,PAYLOAD,2024-07-14 10:43:44,15.08826402,0.0001267,53.2192,357.1822,81.889,278.2246,0.00024822,3.663e-05,0.0,0 STARLINK-3336,1 50818U 22001R   24196.44704171  .00003663  00000-0  24822-3 0  9996,2 50818  53.2192 357.1822 0001267  81.8890 278.2246 15.08826402139330,6917.922,95.438,540.663,538.91,0.0
50818.0,STARLINK-3336,PAYLOAD,2024-07-14 17:05:15,15.08850647,0.0001257,53.2186,355.9948,77.3759,282.7373,0.00017823,2.551e-05,0.0,0 STARLINK-3336,1 50818U 22001R   24196.71198761  .00002551  00000-0  17823-3 0  9996,2 50818  53.2186 355.9948 0001257  77.3759 282.7373 15.08850647140657,6917.848,95.437,540.582,538.843,0.0
50818.0,STARLINK-3336,PAYLOAD,2024-07-15 04:12:57,15.08847157,0.0001217,53.2187,353.9132,74.1,286.0126,0.00010365,1.362e-05,0.0,0 STARLINK-3336,1 50818U 22001R   24197.17567035  .00001362  00000-0  10365-3 0  9994,2 50818  53.2187 353.9132 0001217  74.1000 286.0126 15.08847157140724,6917.859,95.437,540.565,538.882,0.0
50818.0,STARLINK-3336,PAYLOAD,2024-07-15 10:34:30,15.08840543,0.0001725,53.2195,352.7254,73.6853,286.4329,0.00010961,1.457e-05,0.0,0 STARLINK-3336,1 50818U 22001R   24197.44063609  .00001457  00000-0  10961-3 0  9999,2 50818  53.2195 352.7254 0001725  73.6853 286.4329 15.08840543140764,6917.879,95.438,540.937,538.55,0.0
50818.0,STARLINK-3336,PAYLOAD,2024-07-15 13:45:17,15.08840248,0.0001367,53.2199,352.1271,95.7711,264.3437,9.8655e-05,1.283e-05,0.0,0 STARLINK-3336,1 50818U 22001R   24197.57311538  .00001283  00000-0  98655-4 0  9994,2 50818  53.2199 352.1271 0001367  95.7711 264.3437 15.08840248139508,6917.88,95.438,540.69,538.799,0.0
50818.0,STARLINK-3336,PAYLOAD,2024-07-15 15:20:40,15.08840356,0.0001357,53.2199,351.8298,96.2061,263.9085,9.8116e-05,1.274e-05,0.0,0 STARLINK-3336,1 50818U 22001R   24197.63935535  .00001274  00000-0  98116-4 0  9992,2 50818  53.2199 351.8298 0001357  96.2061 263.9085 15.08840356139511,6917.879,95.438,540.683,538.806,0.0
50818.0,STARLINK-3336,PAYLOAD,2024-07-16 13:36:04,15.08849564,0.0001268,53.2187,347.6683,82.5067,277.6069,-4.1981e-05,-9.56e-06,0.0,0 STARLINK-3336,1 50818U 22001R   24198.56671342 -.00000956  00000-0 -41981-4 0  9994,2 50818  53.2187 347.6683 0001268  82.5067 277.6069 15.08849564139653,6917.851,95.437,540.593,538.839,0.0
50818.0,STARLINK-3336,PAYLOAD,2024-07-16 15:11:27,15.08850561,0.0001294,53.2189,347.3711,83.5808,276.5332,-3.1321e-05,-7.86e-06,0.0,0 STARLINK-3336,1 50818U 22001R   24198.63295213 -.00000786  00000-0 -31321-4 0  9999,2 50818  53.2189 347.3711 0001294  83.5808 276.5332 15.08850561139668,6917.848,95.437,540.608,538.818,0.0
50818.0,STARLINK-3336,PAYLOAD,2024-07-17 13:26:52,15.08833164,0.0001135,53.2191,343.2084,96.2005,263.9116,3.015e-05,1.92e-06,0.0,0 STARLINK-3336,1 50818U 22001R   24199.56032410  .00000192  00000-0  30150-4 0  9998,2 50818  53.2191 343.2084 0001135  96.2005 263.9116 15.08833164141082,6917.901,95.438,540.551,538.981,0.0
50818.0,STARLINK-3336,PAYLOAD,2024-07-17 16:37:37,15.0883839,0.0001241,53.2189,342.6126,98.4604,261.6528,4.2853e-05,3.94e-06,0.0,0 STARLINK-3336,1 50818U 22001R   24199.69280083  .00000394  00000-0  42853-4 0  9990,2 50818  53.2189 342.6126 0001241  98.4604 261.6528 15.08838390139823,6917.885,95.438,540.609,538.892,0.0
50818.0,STARLINK-3336,PAYLOAD,2024-07-18 13:17:39,15.08836558,0.0001276,53.2194,338.7489,109.9543,250.1587,2.615e-05,1.28e-06,0.0,0 STARLINK-3336,1 50818U 22001R   24200.55392606  .00000128  00000-0  26150-4 0  9990,2 50818  53.2194 338.7489 0001276 109.9543 250.1587 15.08836558139951,6917.891,95.438,540.639,538.873,0.0
50818.0,STARLINK-3336,PAYLOAD,2024-07-18 16:28:25,15.08841253,0.0001265,53.2195,338.1544,98.4834,261.6302,5.3457e-05,5.63e-06,0.0,0 STARLINK-3336,1 50818U 22001R   24200.68640239  .00000563  00000-0  53457-4 0  9995,2 50818  53.2195 338.1544 0001265  98.4834 261.6302 15.08841253141257,6917.877,95.437,540.617,538.866,0.0
50818.0,STARLINK-3336,PAYLOAD,2024-07-19 14:43:48,15.08845508,0.0001259,53.2201,333.9925,82.2151,277.8984,0.00016378,2.32e-05,0.0,0 STARLINK-3336,1 50818U 22001R   24201.61375901  .00002320  00000-0  16378-3 0  9993,2 50818  53.2201 333.9925 0001259  82.2151 277.8984 15.08845508140113,6917.864,95.437,540.6,538.858,0.0
50818.0,STARLINK-3336,PAYLOAD,2024-07-20 12:59:12,15.08842728,0.0001324,53.2197,329.8294,83.1081,277.0062,0.00014132,1.962e-05,0.0,0 STARLINK-3336,1 50818U 22001R   24202.54112023  .00001962  00000-0  14132-3 0  9997,2 50818  53.2197 329.8294 0001324  83.1081 277.0062 15.08842728141532,6917.872,95.437,540.653,538.821,0.0
50818.0,STARLINK-3336,PAYLOAD,2024-07-20 14:34:35,15.08843402,0.0001372,53.2197,329.5325,77.9432,282.1713,0.00014965,2.095e-05,0.0,0 STARLINK-3336,1 50818U 22001R   24202.60735964  .00002095  00000-0  14965-3 0  9991,2 50818  53.2197 329.5325 0001372  77.9432 282.1713 15.08843402140267,6917.87,95.437,540.684,538.786,0.0
50818.0,STARLINK-3336,PAYLOAD,2024-07-21 12:50:02,15.08825452,0.0002114,53.2188,325.3744,37.2495,322.8644,-8.9067e-05,-1.705e-05,0.0,0 STARLINK-3336,1 50818U 22001R   24203.53474565 -.00001705  00000-0 -89067-4 0  9996,2 50818  53.2188 325.3744 0002114  37.2495 322.8644 15.08825452141686,6917.925,95.438,541.252,538.327,0.0
50818.0,STARLINK-3336,PAYLOAD,2024-07-21 14:25:22,15.08862943,0.0001254,53.2179,325.0647,75.0832,285.0299,5.0435e-05,5.15e-06,0.0,0 STARLINK-3336,1 50818U 22001R   24203.60095539  .00000515  00000-0  50435-4 0  9997,2 50818  53.2179 325.0647 0001254  75.0832 285.0299 15.08862943140416,6917.81,95.436,540.543,538.808,0.0
50818.0,STARLINK-3336,PAYLOAD,2024-07-22 07:54:35,15.0887428,0.000122,53.2184,321.7965,81.413,278.7,0.00023259,3.419e-05,0.0,0 STARLINK-3336,1 50818U 22001R   24204.32957287  .00003419  00000-0  23259-3 0  9993,2 50818  53.2184 321.7965 0001220  81.4130 278.7000 15.08874280141803,6917.776,95.435,540.485,538.797,0.0
50818.0,STARLINK-3336,PAYLOAD,2024-07-22 17:26:55,15.08850766,2.45e-05,53.22,320.0129,323.8229,36.2747,3.2557e-05,2.31e-06,0.0,0 STARLINK-3336,1 50818U 22001R   24204.72702754  .00000231  00000-0  32557-4 0  9995,2 50818  53.2200 320.0129 0000245 323.8229  36.2747 15.08850766141868,6917.847,95.437,539.882,539.543,0.0
50818.0,STARLINK-3336,PAYLOAD,2024-07-23 14:06:58,15.08838807,0.0002454,53.2184,316.1447,116.241,243.8834,-0.00033696,-5.647e-05,0.0,0 STARLINK-3336,1 50818U 22001R   24205.58817949 -.00005647  00000-0 -33696-3 0  9995,2 50818  53.2184 316.1447 0002454 116.2410 243.8834 15.08838807140716,6917.884,95.438,541.447,538.051,0.0
50818.0,STARLINK-3336,PAYLOAD,2024-07-23 17:17:45,15.08817261,0.0001396,53.2162,315.5519,94.458,265.6572,-0.00014651,-2.617e-05,0.0,0 STARLINK-3336,1 50818U 22001R   24205.72067100 -.00002617  00000-0 -14651-3 0  9991,2 50818  53.2162 315.5519 0001396  94.4580 265.6572 15.08817261142011,6917.95,95.439,540.781,538.849,0.0
50818.0,STARLINK-3336,PAYLOAD,2024-07-24 17:08:30,15.08838063,0.0001695,53.2137,311.0912,111.2307,248.8867,0.00024477,3.609e-05,0.0,0 STARLINK-3336,1 50818U 22001R   24206.71424207  .00003609  00000-0  24477-3 0  9993,2 50818  53.2137 311.0912 0001695 111.2307 248.8867 15.08838063142167,6917.886,95.438,540.924,538.579,0.0
50818.0,STARLINK-3336,PAYLOAD,2024-07-25 05:51:36,15.08836105,0.0002198,53.2139,308.7138,88.1564,271.9679,0.00026735,3.969e-05,0.0,0 STARLINK-3336,1 50818U 22001R   24207.24416793  .00003969  00000-0  26735-3 0  9991,2 50818  53.2139 308.7138 0002198  88.1564 271.9679 15.08836105140967,6917.892,95.438,541.278,538.237,0.0
50818.0,STARLINK-3336,PAYLOAD,2024-07-25 10:37:46,15.08836996,9.85e-05,53.2154,307.8245,84.2901,275.8203,0.00010838,1.437e-05,0.0,0 STARLINK-3336,1 50818U 22001R   24207.44289376  .00001437  00000-0  10838-3 0  9993,2 50818  53.2154 307.8245 0000985  84.2901 275.8203 15.08836996142277,6917.89,95.438,540.436,539.073,0.0
50818.0,STARLINK-3336,PAYLOAD,2024-07-25 16:59:18,15.08839855,0.0001777,53.2156,306.6318,123.6535,236.4627,0.00021452,3.128e-05,0.0,0 STARLINK-3336,1 50818U 22001R   24207.70784750  .00003128  00000-0  21452-3 0  9991,2 50818  53.2156 306.6318 0001777 123.6535 236.4627 15.08839855141031,6917.881,95.438,540.975,538.517,0.0
50818.0,STARLINK-3336,PAYLOAD,2024-07-26 10:28:32,15.08849354,0.0001271,53.2194,303.3637,85.3515,274.7622,-0.00011474,-2.114e-05,0.0,0 STARLINK-3336,1 50818U 22001R   24208.43648941 -.00002114  00000-0 -11474-3 0  9992,2 50818  53.2194 303.3637 0001271  85.3515 274.7622 15.08849354141149,6917.852,95.437,540.596,538.838,0.0
50818.0,STARLINK-3336,PAYLOAD,2024-07-26 15:14:41,15.08847746,0.0001602,53.2165,302.4675,87.7456,272.3719,4.4491e-05,4.2e-06,0.0,0 STARLINK-3336,1 50818U 22001R   24208.63520425  .00000420  00000-0  44491-4 0  9992,2 50818  53.2165 302.4675 0001602  87.7456 272.3719 15.08847746142456,6917.857,95.437,540.83,538.613,0.0
50818.0,STARLINK-3336,PAYLOAD,2024-07-27 10:19:20,15.08837032,0.0001853,53.2169,298.8991,99.9237,260.1965,-8.4814e-05,-1.638e-05,0.0,0 STARLINK-3336,1 50818U 22001R   24209.43009492 -.00001638  00000-0 -84814-4 0  9994,2 50818  53.2169 298.8991 0001853  99.9237 260.1965 15.08837032142577,6917.889,95.438,541.036,538.473,0.0
50818.0,STARLINK-3336,PAYLOAD,2024-07-27 15:05:29,15.08843581,0.0001665,53.2171,298.0035,121.9801,238.1353,-8.7337e-05,-1.678e-05,0.0,0 STARLINK-3336,1 50818U 22001R   24209.62880959 -.00001678  00000-0 -87337-4 0  9997,2 50818  53.2171 298.0035 0001665 121.9801 238.1353 15.08843581141329,6917.869,95.437,540.886,538.583,0.0
